PROMETHEUS 2-3          
1 41855U 16067H   25328.18009080  .00750744  24820-3  18273-2 0  9998
2 41855  98.0241 203.3842 0004737  76.0916 284.0885 15.96256892496558
CORVUS BC2              
1 42846U 17042X   25328.41595572  .00005190  00000+0  37392-3 0  9997
2 42846  97.3843 133.2435 0014615  92.1152 268.1749 15.04498176456252
CORVUS BC1              
1 42847U 17042Y   25328.43950118  .00003766  00000+0  27087-3 0  9998
2 42847  97.3871 133.9329 0013813  70.9715 289.3007 15.04740669456283
MAKERSAT 0              
1 43016U 17073D   25328.13051065  .00024129  00000+0  83324-3 0  9993
2 43016  97.4900 205.0800 0127809 277.4715  81.2015 15.22396671435168
SIRION PATHFINDER-2     
1 43759U 18099B   25328.41591882  .00006599  00000+0  38750-3 0  9997
2 43759  97.4562  17.3248 0007786 291.8880  68.1522 15.12019243381657
CORVUS BC4              
1 43767U 18099K   25328.09669436  .00005060  00000+0  31269-3 0  9991
2 43767  97.4367  12.0226 0008551 359.5845   0.5376 15.10265918381423
SPACEBEE-7              
1 43816U 18099BL  25328.26159019  .00087949  00000+0  13397-2 0  9993
2 43816  97.4745  43.0762 0004196 226.4597 133.6308 15.54185982382653
SHIELDS 1               
1 43850U 18104B   25328.34071061  .00101124  00000+0  53849-3 0  9996
2 43850  85.0076 277.1158 0005638 132.8783 227.2965 15.80121685387742
DUCHIFAT-3              
1 44854U 19089C   25328.42974233  .00528259  00000+0  17490-2 0  9999
2 44854  36.9299 348.8346 0009462 155.8077 204.3138 15.88071252329212
M2 PATHFINDER           
1 45727U 20037E   25328.47734971  .00003465  00000+0  25950-3 0  9990
2 45727  97.8113 152.5382 0012654 121.5324 238.7139 15.03328268294723
NETSAT-4                
1 46504U 20068U   25327.93931568  .00019597  00000+0  56194-3 0  9996
2 46504  97.8600 315.9621 0006203 354.2737   5.8434 15.35918482284183
NETSAT-3                
1 46505U 20068V   25328.42034301  .00018233  00000+0  54741-3 0  9993
2 46505  97.8616 315.0321 0006641   8.2564 351.8786 15.34484231284193
NETSAT-1                
1 46506U 20068W   25328.46902181  .00014796  00000+0  53705-3 0  9997
2 46506  97.8662 311.5480 0006959  23.7787 336.3771 15.28407931283964
NETSAT-2                
1 46507U 20068X   25328.39951810  .00020331  00000+0  57640-3 0  9997
2 46507  97.8607 315.9139 0005920  28.2338 331.9224 15.36268780284198
WILDTRACKCUBE-SIMBA     
1 47941U 21022K   25328.49593395  .00086095  00000+0  94693-3 0  9990
2 47941  97.4060 238.2471 0010425  67.3879 292.8481 15.62822612259232
GREENCUBE (IO-117)      
1 53109U 22080E   25325.40965479 -.00000003  00000+0  00000+0 0  9993
2 53109  70.1606  10.4998 0009117 331.1134  28.9021  6.42582936 78715
SITRO-AIS 5 (KATYS)     
1 57176U 23091L   25328.53060803  .00013239  00000+0  55002-3 0  9998
2 57176  97.5365  25.9523 0014183 102.5755 257.7069 15.23852541133112
SITRO-AIS 6 (CHIRKIN)   
1 57192U 23091AC  25328.49564127  .00007363  00000+0  31907-3 0  9998
2 57192  97.5367  25.8234 0014583 103.2062 257.0802 15.22589795133107
SITRO-AIS 8 (ANOKHIN)   
1 57193U 23091AD  25328.52241199  .00015587  00000+0  61292-3 0  9991
2 57193  97.5360  26.8381 0013436 101.0299 259.2451 15.25669178133177
SITRO-AIS 7 (FARTUSHNIY)
1 57194U 23091AE  25328.53104939  .00006827  00000+0  29774-3 0  9999
2 57194  97.5367  25.7653 0014410 103.8231 256.4610 15.22401475133104
SITRO-AIS 10 (BURDAEV)  
1 57199U 23091AK  25328.55286712  .00018306  00000+0  63142-3 0  9998
2 57199  97.5374  30.1810 0009451  83.7383 276.4934 15.29998185133382
SITRO-AIS 9 (SHCHUKIN)  
1 57201U 23091AM  25328.52881953  .00018409  00000+0  64033-3 0  9991
2 57201  97.5375  30.0098 0009433  84.0373 276.1942 15.29723280133374
SITRO-AIS 12 (SMIRENNIY)
1 57204U 23091AQ  25328.55317913  .00017213  00000+0  59475-3 0  9993
2 57204  97.5384  30.3917 0009289  78.4427 281.7856 15.29957310133397
SITRO-AIS 11 (SHEFFER)  
1 57208U 23091AU  25328.54677207  .00018222  00000+0  62460-3 0  9990
2 57208  97.5383  30.5292 0009179  78.3075 281.9195 15.30206564133404
SITRO-AIS 25            
1 59066U 24039R   25328.55478185  .00004702  00000+0  38539-3 0  9990
2 59066  95.3950  94.6221 0149312 323.1514  35.9519 14.91157204 94203
SITRO-AIS 26            
1 59067U 24039S   25328.53073765  .00003953  00000+0  32569-3 0  9998
2 59067  95.3952  94.5407 0149584 323.6306  35.4824 14.90993844 94195
SITRO-AIS 27            
1 59068U 24039T   25328.55481399  .00004814  00000+0  39303-3 0  9997
2 59068  95.3951  94.7417 0148739 322.5639  36.5295 14.91351627 94211
SITRO-AIS 28            
1 59071U 24039U   25328.53726763  .00004205  00000+0  34341-3 0  9997
2 59071  95.3953  94.7660 0148624 322.5109  36.5821 14.91395184 94213
GRBBETA                 
1 60237U 24128C   25328.40913425  .00004830  00000+0  34622-3 0  9997
2 60237  61.9893 213.6682 0056843  92.9414 267.8185 15.04500420 75436
OOV-CUBE (TUBSAT-30)    
1 60240U 24128F   25328.43335891  .00003080  00000+0  24482-3 0  9998
2 60240  61.9944 218.8942 0058783  90.5099 270.2728 15.01449700 75353
ROBUSTA-3A (MEDITERRAN*)
1 60243U 24128J   25328.10025267  .00009684  00000+0  61962-3 0  9998
2 60243  61.9865 211.5094 0056700  87.3737 273.3845 15.07822390 75457
LASARSAT                
1 62391U 24247Q   25328.37224272  .00026175  00000+0  80432-3 0  9999
2 62391  44.9801 321.9007 0003948 334.5915  25.4776 15.33294424 51740
CROCUBE                 
1 62394U 24247T   25328.00398263  .00030554  00000+0  92018-3 0  9993
2 62394  44.9764 323.3213 0005013 345.3728  14.7011 15.33854678 51693
